RCM-1                   
1 44322U 19033A   26195.23008280  .00000401  00000+0  44423-4 0  9992
2 44322  97.7603 202.2947 0001525  92.7850 329.9959 14.92585580386111
RCM-3                   
1 44323U 19033B   26194.97286847  .00000133  00000+0  18337-4 0  9997
2 44323  97.7602 202.1351 0001539  91.9247 268.2149 14.92590077386095
RCM-2                   
1 44324U 19033C   26195.19619351 -.00000245  00000+0 -18395-4 0  9993
2 44324  97.7602 202.3060 0001525  90.2477 269.8917 14.92585962386117
