{"fetched_at":"2026-07-14T17:41:03.206Z","source":"https://celestrak.org/NORAD/elements/gp.php?NAME=RCM&FORMAT=JSON","constellation":"rcm","records":[{"OBJECT_NAME":"RCM-1","OBJECT_ID":"2019-033A","EPOCH":"2026-07-14T05:31:19.153920","CLASSIFICATION_TYPE":"U","MEAN_MOTION":14.9258558,"ECCENTRICITY":0.0001525,"INCLINATION":97.7603,"RA_OF_ASC_NODE":202.2947,"ARG_OF_PERICENTER":92.785,"MEAN_ANOMALY":329.9959,"EPHEMERIS_TYPE":0,"NORAD_CAT_ID":44322,"ELEMENT_SET_NO":999,"REV_AT_EPOCH":38611,"BSTAR":0.000044423,"MEAN_MOTION_DOT":0.00000401,"MEAN_MOTION_DDOT":0},{"OBJECT_NAME":"RCM-3","OBJECT_ID":"2019-033B","EPOCH":"2026-07-13T23:20:55.835808","CLASSIFICATION_TYPE":"U","MEAN_MOTION":14.92590077,"ECCENTRICITY":0.0001539,"INCLINATION":97.7602,"RA_OF_ASC_NODE":202.1351,"ARG_OF_PERICENTER":91.9247,"MEAN_ANOMALY":268.2149,"EPHEMERIS_TYPE":0,"NORAD_CAT_ID":44323,"ELEMENT_SET_NO":999,"REV_AT_EPOCH":38609,"BSTAR":0.000018337,"MEAN_MOTION_DOT":0.00000133,"MEAN_MOTION_DDOT":0},{"OBJECT_NAME":"RCM-2","OBJECT_ID":"2019-033C","EPOCH":"2026-07-14T04:42:31.119264","CLASSIFICATION_TYPE":"U","MEAN_MOTION":14.92585962,"ECCENTRICITY":0.0001525,"INCLINATION":97.7602,"RA_OF_ASC_NODE":202.306,"ARG_OF_PERICENTER":90.2477,"MEAN_ANOMALY":269.8917,"EPHEMERIS_TYPE":0,"NORAD_CAT_ID":44324,"ELEMENT_SET_NO":999,"REV_AT_EPOCH":38611,"BSTAR":-0.000018395,"MEAN_MOTION_DOT":-0.00000245,"MEAN_MOTION_DDOT":0}]}
